OBJECT_NAME,OBJECT_ID,EPOCH,MEAN_MOTION,ECCENTRICITY,INCLINATION,RA_OF_ASC_NODE,ARG_OF_PERICENTER,MEAN_ANOMALY,EPHEMERIS_TYPE,CLASSIFICATION_TYPE,NORAD_CAT_ID,ELEMENT_SET_NO,REV_AT_EPOCH,BSTAR,MEAN_MOTION_DOT,MEAN_MOTION_DDOT
LAPAN-A3,2016-040E,2026-07-10T21:11:13.302240,15.33260785,.0008325,97.1497,187.2531,294.9897,65.0481,0,U,41603,999,55844,.71631E-4,.2229E-4,0
GAOFEN-3,2016-049A,2026-07-10T21:08:05.193888,14.42217874,.0001778,98.4020,199.3086,88.7865,271.3529,0,U,41727,999,52206,-.33251E-4,-.153E-5,0
SKYSAT-C4,2016-058B,2026-07-10T20:20:10.698720,15.49338612,.0003311,96.9170,212.6388,124.5912,235.5653,0,U,41771,999,54913,.20937E-3,.11381E-3,0
SKYSAT-C5,2016-058C,2026-07-09T22:14:08.690208,15.33955160,.00020348,97.0465,230.5527,135.3938,224.7470,0,U,41772,999,54723,.22859962E-3,.7436E-4,0
SKYSAT-C2,2016-058D,2026-07-10T11:40:06.062592,15.42607580,.00020347,97.0164,212.7103,13.3625,346.7677,0,U,41773,999,54864,.2024409E-3,.8725E-4,0
SKYSAT-C3,2016-058E,2026-07-10T00:24:41.926752,15.53540793,.00021894,96.9003,220.9981,133.5121,226.6316,0,U,41774,999,54965,.284373E-3,.18005E-3,0
ALSAT-1B,2016-059C,2026-07-10T21:23:28.500576,14.72291578,.0010033,97.7759,199.6319,142.1112,218.0804,0,U,41785,999,52406,-.13319E-5,-.56E-6,0
PATHFINDER 1,2016-059E,2026-07-10T19:02:55.425120,14.67690023,.0029612,97.8173,190.0053,129.1474,231.2370,0,U,41787,999,52317,.6608E-4,.332E-5,0
SCATSAT 1,2016-059H,2026-07-10T19:34:53.385024,14.79580334,.0054901,98.1179,255.8248,170.5337,189.6923,0,U,41790,999,10508,.10122E-3,.72E-5,0
GOKTURK 1A,2016-073A,2026-07-10T20:16:46.423200,14.62791046,.0001444,98.1223,86.1456,79.8925,280.2439,0,U,41875,999,51228,.28871E-4,.101E-5,0
RESOURCESAT-2A,2016-074A,2026-07-10T20:38:28.025376,14.21606759,.0002674,98.7520,265.1701,37.6574,322.4790,0,U,41877,999,49766,-.12515E-3,-.319E-5,0
CARTOSAT-2D,2017-008A,2026-07-10T20:51:59.842368,15.19261858,.000567,97.4099,250.7312,150.1716,209.9843,0,U,41948,999,52117,.64638E-4,.1296E-4,0
SENTINEL-2B,2017-013A,2026-07-10T20:15:09.802080,14.30813322,.0001218,98.5685,266.2838,89.7747,270.3576,0,U,42063,999,48802,-.70897E-4,-.229E-5,0
CARTOSAT-2E,2017-036C,2026-07-10T19:42:37.086912,15.19233582,.0002797,97.4268,251.2325,204.7610,155.3490,0,U,42767,999,50173,.10611E-3,.2167E-4,0
FORMOSAT-5,2017-049A,2026-07-10T20:17:02.310432,14.50907058,.001163,98.2247,266.6287,17.0607,343.0977,0,U,42920,999,47010,.22037E-4,.43E-6,0
SENTINEL-5P,2017-064A,2026-07-10T07:42:36.714528,14.19522787,.00011159,98.7929,133.2886,92.4357,267.6947,0,U,42969,999,45284,.24329893E-4,.7E-7,0
SKYSAT-C11,2017-068A,2026-07-09T15:48:01.789056,15.59105762,.00008121,97.4368,340.4901,166.0165,194.1114,0,U,42987,999,48674,.27644744E-3,.21499E-3,0
SKYSAT-C10,2017-068B,2026-07-09T15:42:35.169408,15.35042344,.00013609,97.4523,327.7297,109.0541,251.0850,0,U,42988,999,48580,.23222205E-3,.7814E-4,0
SKYSAT-C9,2017-068C,2026-07-09T15:06:23.132160,15.42121068,.00090649,97.4443,328.8561,62.2816,297.9350,0,U,42989,999,48621,.2150963E-3,.913E-4,0
SKYSAT-C8,2017-068D,2026-07-09T15:45:21.893760,15.37418486,.00012242,97.4543,327.6181,99.9689,260.1694,0,U,42990,999,48576,.20711554E-3,.7514E-4,0
SKYSAT-C7,2017-068E,2026-07-10T04:06:59.264064,15.37378749,.00061426,97.4551,329.1314,37.9429,322.2247,0,U,42991,999,48590,.20467599E-3,.7419E-4,0
SKYSAT-C6,2017-068F,2026-07-09T15:34:22.752480,15.34106572,.00051627,97.4588,328.4799,103.1836,256.9983,0,U,42992,999,48576,.19987016E-3,.6518E-4,0
CARTOSAT-2F,2018-004A,2026-07-10T20:29:33.702720,15.19245970,.0002344,97.4779,251.2559,144.3538,215.7853,0,U,43111,999,47092,.61358E-4,.1225E-4,0
GAOFEN-1 02,2018-031A,2026-07-10T21:11:16.645056,14.76469110,.0001669,98.0518,254.3422,311.2641,48.8424,0,U,43259,999,44619,.90514E-4,.578E-5,0
GAOFEN-1 03,2018-031B,2026-07-10T20:39:42.038208,14.76458838,.0002759,98.0506,254.1762,27.4280,332.7075,0,U,43260,999,44618,.62429E-4,.383E-5,0
GAOFEN-1 04,2018-031D,2026-07-10T20:04:44.904576,14.76466514,.0001493,98.0519,254.3458,57.1123,303.0230,0,U,43262,999,44617,.89358E-5,.11E-6,0
SENTINEL-3B,2018-039A,2026-07-10T14:42:49.019040,14.26741218,.0001044,98.6238,258.8081,120.4260,239.7024,0,U,43437,999,42746,.35163E-4,.41E-6,0
GAOFEN-5 01,2018-043A,2026-07-09T16:02:21.142464,14.60621115,.00023973,98.4586,162.7286,43.0598,317.0789,0,U,43461,999,43497,.53023303E-4,.209E-5,0
GAOFEN-6,2018-048A,2026-07-10T20:36:51.512256,14.76378920,.0012139,98.0961,254.5504,93.8775,266.3822,0,U,43484,999,43688,.14926E-4,.51E-6,0
GAOFEN-11 01,2018-063A,2026-07-10T20:16:54.339168,15.55975909,.0002688,97.1284,258.6658,218.8511,141.2551,0,U,43585,999,44402,.12958E-3,.8904E-4,0
