LAPAN-A3                
1 41603U 16040E   26191.88279285  .00002229  00000+0  71631-4 0  9999
2 41603  97.1497 187.2531 0008325 294.9897  65.0481 15.33260785558446
GAOFEN-3                
1 41727U 16049A   26191.88061567 -.00000153  00000+0 -33251-4 0  9999
2 41727  98.4020 199.3086 0001778  88.7865 271.3529 14.42217874522061
SKYSAT-C4               
1 41771U 16058B   26191.84734605  .00011381  00000+0  20937-3 0  9993
2 41771  96.9170 212.6388 0003311 124.5912 235.5653 15.49338612549139
SKYSAT-C5               
1 41772U 16058C   26190.92648947  .00007436  00000+0  22860-3 0  9998
2 41772  97.0465 230.5527 0002034 135.3938 224.7470 15.33955160547234
SKYSAT-C2               
1 41773U 16058D   26191.48618128  .00008725  00000+0  20244-3 0  9995
2 41773  97.0164 212.7103 0002034  13.3625 346.7677 15.42607580548641
SKYSAT-C3               
1 41774U 16058E   26191.01715193  .00018005  00000+0  28437-3 0  9999
2 41774  96.9003 220.9981 0002189 133.5121 226.6316 15.53540793549656
ALSAT-1B                
1 41785U 16059C   26191.89130209 -.00000056  00000+0 -13319-5 0  9991
2 41785  97.7759 199.6319 0010033 142.1112 218.0804 14.72291578524064
PATHFINDER 1            
1 41787U 16059E   26191.79369705  .00000332  00000+0  66080-4 0  9994
2 41787  97.8173 190.0053 0029612 129.1474 231.2370 14.67690023523174
SCATSAT 1               
1 41790U 16059H   26191.81589566  .00000720  00000+0  10122-3 0  9996
2 41790  98.1179 255.8248 0054901 170.5337 189.6923 14.79580334105083
GOKTURK 1A              
1 41875U 16073A   26191.84498175  .00000101  00000+0  28871-4 0  9998
2 41875  98.1223  86.1456 0001444  79.8925 280.2439 14.62791046512281
RESOURCESAT-2A          
1 41877U 16074A   26191.86004659 -.00000319  00000+0 -12515-3 0  9993
2 41877  98.7520 265.1701 0002674  37.6574 322.4790 14.21606759497663
CARTOSAT-2D             
1 41948U 17008A   26191.86944262  .00001296  00000+0  64638-4 0  9990
2 41948  97.4099 250.7312 0005670 150.1716 209.9843 15.19261858521172
SENTINEL-2B             
1 42063U 17013A   26191.84386345 -.00000229  00000+0 -70897-4 0  9996
2 42063  98.5685 266.2838 0001218  89.7747 270.3576 14.30813322488026
CARTOSAT-2E             
1 42767U 17036C   26191.82126258  .00002167  00000+0  10611-3 0  9993
2 42767  97.4268 251.2325 0002797 204.7610 155.3490 15.19233582501731
FORMOSAT-5              
1 42920U 17049A   26191.84516563  .00000043  00000+0  22037-4 0  9999
2 42920  98.2247 266.6287 0011630  17.0607 343.0977 14.50907058470104
SENTINEL-5P             
1 42969U 17064A   26191.32125827  .00000007  00000+0  24330-4 0  9999
2 42969  98.7929 133.2886 0001115  92.4357 267.6947 14.19522787452845
SKYSAT-C11              
1 42987U 17068A   26190.65835404  .00021499  00000+0  27645-3 0  9996
2 42987  97.4368 340.4901 0000812 166.0165 194.1114 15.59105762486747
SKYSAT-C10              
1 42988U 17068B   26190.65457372  .00007814  00000+0  23222-3 0  9993
2 42988  97.4523 327.7297 0001360 109.0541 251.0850 15.35042344485807
SKYSAT-C9               
1 42989U 17068C   26190.62943440  .00009130  00000+0  21510-3 0  9998
2 42989  97.4443 328.8561 0009064  62.2816 297.9350 15.42121068486218
SKYSAT-C8               
1 42990U 17068D   26190.65650340  .00007514  00000+0  20712-3 0  9994
2 42990  97.4543 327.6181 0001224  99.9689 260.1694 15.37418486485760
SKYSAT-C7               
1 42991U 17068E   26191.17151926  .00007419  00000+0  20468-3 0  9991
2 42991  97.4551 329.1314 0006142  37.9429 322.2247 15.37378749485900
SKYSAT-C6               
1 42992U 17068F   26190.64887445  .00006518  00000+0  19987-3 0  9998
2 42992  97.4588 328.4799 0005162 103.1836 256.9983 15.34106572485763
CARTOSAT-2F             
1 43111U 18004A   26191.85386230  .00001225  00000+0  61358-4 0  9993
2 43111  97.4779 251.2559 0002344 144.3538 215.7853 15.19245970470921
GAOFEN-1 02             
1 43259U 18031A   26191.88283154  .00000578  00000+0  90514-4 0  9996
2 43259  98.0518 254.3422 0001669 311.2641  48.8424 14.76469110446191
GAOFEN-1 03             
1 43260U 18031B   26191.86090322  .00000383  00000+0  62429-4 0  9997
2 43260  98.0506 254.1762 0002759  27.4280 332.7075 14.76458838446182
GAOFEN-1 04             
1 43262U 18031D   26191.83663084  .00000011  00000+0  89358-5 0  9996
2 43262  98.0519 254.3458 0001493  57.1123 303.0230 14.76466514446175
SENTINEL-3B             
1 43437U 18039A   26191.61306735  .00000041  00000+0  35163-4 0  9998
2 43437  98.6238 258.8081 0001044 120.4260 239.7024 14.26741218427461
GAOFEN-5 01             
1 43461U 18043A   26190.66830026  .00000209  00000+0  53023-4 0  9990
2 43461  98.4586 162.7286 0002397  43.0598 317.0789 14.60621115434971
GAOFEN-6                
1 43484U 18048A   26191.85892954  .00000051  00000+0  14926-4 0  9994
2 43484  98.0961 254.5504 0012139  93.8775 266.3822 14.76378920436883
GAOFEN-11 01            
1 43585U 18063A   26191.84507337  .00008904  00000+0  12958-3 0  9997
2 43585  97.1284 258.6658 0002688 218.8511 141.2551 15.55975909444026
